STARLINK-32569          
1 61867U 24202Y   26068.49794347 -.00000075  00000+0  67999-5 0  9994
2 61867  42.9979 239.4680 0001057 268.5924  91.4806 15.27573246 75306
FLOCK 4G-25             
1 62646U 25009AP  26068.74572546  .00010373  00000+0  38902-3 0  9990
2 62646  97.4049 151.4141 0000828 316.3151  43.8023 15.27424196 63734
